     2              NAVIGATION DATA                         RINEX VERSION / TYPE
CCRINEXN V1.6.0 UX  CDDIS               16-SEP-16 15:33     PGM / RUN BY / DATE 
IGS BROADCAST EPHEMERIS FILE                                COMMENT             
    0.7451D-08  0.1490D-07 -0.5960D-07 -0.1192D-06          ION ALPHA           
    0.7987D+05  0.1638D+05 -0.1311D+06 -0.1311D+06          ION BETA            
    0.931322574615D-09 0.177635683940D-14   503808     1914 DELTA-UTC: A0,A1,T,W
    17                                                      LEAP SECONDS        
                                                            END OF HEADER       
13 16  9 15 20  0  0.0-0.439179129899D-04-0.227373675443D-11 0.000000000000D+00
    0.108000000000D+03 0.461875000000D+02 0.475019786481D-08-0.212621680025D+01
    0.229664146900D-05 0.402521155775D-02 0.455416738987D-05 0.515367873955D+04
    0.417600000000D+06-0.186264514923D-08-0.196282110128D+01 0.113621354103D-06
    0.970572584221D+00 0.297468750000D+03 0.195959975274D+01-0.826105839195D-08
    0.190722230061D-09 0.100000000000D+01 0.191400000000D+04 0.000000000000D+00
    0.280000000000D+01 0.000000000000D+00-0.111758708954D-07 0.108000000000D+03
    0.410418000000D+06 0.400000000000D+01 0.000000000000D+00 0.000000000000D+00
14 16  9 15 20  0  0.0-0.352221541107D-04-0.193267624127D-11 0.000000000000D+00
    0.640000000000D+02 0.452187500000D+02 0.507235409231D-08-0.764983867209D+00
    0.237487256527D-05 0.893869146239D-02 0.434368848801D-05 0.515404988098D+04
    0.417600000000D+06-0.502914190292D-07-0.200059477984D+01 0.128522515297D-06
    0.963098526977D+00 0.298062500000D+03-0.195315987471D+01-0.861285887055D-08
    0.206437172912D-09 0.100000000000D+01 0.191400000000D+04 0.000000000000D+00
    0.200000000000D+01 0.000000000000D+00-0.931322574616D-08 0.640000000000D+02
    0.410400000000D+06 0.000000000000D+00 0.000000000000D+00 0.000000000000D+00
15 16  9 15 20  0  0.0-0.327420886606D-03-0.147792889038D-11 0.000000000000D+00
    0.990000000000D+02 0.637812500000D+02 0.558023243908D-08-0.104935897804D+01
    0.333227217197D-05 0.843947869726D-02 0.509433448315D-05 0.515366212273D+04
    0.417600000000D+06 0.173225998878D-06-0.214062478637D+01-0.745058059692D-08
    0.930127056942D+00 0.265281250000D+03 0.501073959193D+00-0.871429155665D-08
    0.364300888880D-09 0.000000000000D+00 0.191400000000D+04 0.000000000000D+00
    0.280000000000D+01 0.000000000000D+00-0.107102096081D-07 0.990000000000D+02
    0.416520000000D+06 0.400000000000D+01 0.000000000000D+00 0.000000000000D+00
16 16  9 15 20  0  0.0 0.653602182865D-05 0.193267624127D-11 0.000000000000D+00
    0.170000000000D+02 0.657500000000D+02 0.339121268619D-08 0.608406893766D+00
    0.353716313839D-05 0.867969088722D-02 0.133756548166D-04 0.515357262039D+04
    0.417600000000D+06 0.298023223877D-07 0.906167402195D-01 0.227242708206D-06
    0.991004170639D+00 0.137593750000D+03 0.386335395368D+00-0.755638618239D-08
    0.154292141173D-09 0.100000000000D+01 0.191400000000D+04 0.000000000000D+00
    0.200000000000D+01 0.000000000000D+00-0.107102096081D-07 0.170000000000D+02
    0.410400000000D+06 0.400000000000D+01 0.000000000000D+00 0.000000000000D+00
17 16  9 15 20  0  0.0-0.202410388738D-03 0.454747350886D-12 0.000000000000D+00
    0.350000000000D+02 0.728437500000D+02 0.467555189836D-08-0.312915873059D+00
    0.383146107197D-05 0.111608761363D-01 0.382401049137D-05 0.515373990822D+04
    0.417600000000D+06-0.126659870148D-06 0.111048605323D+01 0.987201929092D-07
    0.977250587278D+00 0.319312500000D+03-0.192325890002D+01-0.858071456406D-08
    0.490377569051D-09 0.100000000000D+01 0.191400000000D+04 0.000000000000D+00
    0.200000000000D+01 0.000000000000D+00-0.107102096081D-07 0.350000000000D+02
    0.410400000000D+06 0.400000000000D+01 0.000000000000D+00 0.000000000000D+00
18 16  9 15 20  0  0.0 0.557999592274D-03 0.375166564481D-11 0.000000000000D+00
    0.370000000000D+02-0.210312500000D+02 0.517200104966D-08 0.125469517344D+01
   -0.111572444439D-05 0.172566304682D-01 0.133607536554D-04 0.515372620583D+04
    0.417600000000D+06-0.407919287682D-06 0.312283082431D+01-0.163912773132D-06
    0.925684026981D+00 0.110375000000D+03-0.186054263059D+01-0.849571080153D-08
    0.960754323320D-10 0.100000000000D+01 0.191400000000D+04 0.000000000000D+00
    0.200000000000D+01 0.000000000000D+00-0.111758708954D-07 0.370000000000D+02
    0.410400000000D+06 0.000000000000D+00 0.000000000000D+00 0.000000000000D+00
19 16  9 15 20  0  0.0-0.523031689227D-03 0.454747350886D-12 0.000000000000D+00
    0.106000000000D+03 0.676562500000D+02 0.461733518769D-08 0.280830890127D+01
    0.336021184921D-05 0.105295332614D-01 0.299140810967D-05 0.515362574196D+04
    0.417600000000D+06-0.875443220139D-07 0.115898154764D+01-0.134110450745D-06
    0.974367790170D+00 0.329250000000D+03 0.863870952927D+00-0.823034282682D-08
    0.405731186047D-09 0.100000000000D+01 0.191400000000D+04 0.000000000000D+00
    0.200000000000D+01 0.000000000000D+00-0.149011611938D-07 0.106000000000D+03
    0.410400000000D+06 0.400000000000D+01 0.000000000000D+00 0.000000000000D+00
20 16  9 15 20  0  0.0 0.435798428953D-03 0.204636307899D-11 0.000000000000D+00
    0.750000000000D+02-0.193750000000D+02 0.503699552537D-08-0.118756724632D+01
   -0.931322574616D-06 0.463321700227D-02 0.128317624330D-04 0.515359297371D+04
    0.417600000000D+06-0.502914190292D-07 0.307121369533D+01 0.894069671631D-07
    0.926977752733D+00 0.115375000000D+03 0.143878468252D+01-0.825784397235D-08
    0.532165023952D-10 0.100000000000D+01 0.191400000000D+04 0.000000000000D+00
    0.200000000000D+01 0.000000000000D+00-0.838190317154D-08 0.750000000000D+02
    0.412200000000D+06 0.400000000000D+01 0.000000000000D+00 0.000000000000D+00
21 16  9 15 20  0  0.0-0.531962607056D-03-0.454747350886D-12 0.000000000000D+00
    0.470000000000D+02-0.109687500000D+03 0.519807366349D-08 0.223012338319D+01
   -0.594370067120D-05 0.234175040387D-01 0.462681055069D-05 0.515355412293D+04
    0.417600000000D+06 0.240281224251D-06 0.208145711732D+01-0.312924385071D-06
    0.937160139476D+00 0.277687500000D+03-0.176083438555D+01-0.827213028172D-08
   -0.409659921123D-09 0.100000000000D+01 0.191400000000D+04 0.000000000000D+00
    0.200000000000D+01 0.000000000000D+00-0.977888703346D-08 0.470000000000D+02
    0.413070000000D+06 0.400000000000D+01 0.000000000000D+00 0.000000000000D+00
22 16  9 15 20  0  0.0 0.244318973273D-03-0.101181285572D-10 0.000000000000D+00
    0.610000000000D+02-0.556250000000D+01 0.514842873844D-08-0.810776779924D+00
   -0.305473804474D-06 0.746361527126D-02 0.141169875860D-04 0.515373864746D+04
    0.417600000000D+06-0.122934579849D-06 0.312324813486D+01 0.124797224999D-06
    0.923627300213D+00 0.873125000000D+02-0.186766314442D+01-0.840106422376D-08
    0.152863510236D-09 0.100000000000D+01 0.191400000000D+04 0.000000000000D+00
    0.200000000000D+01 0.000000000000D+00-0.176951289177D-07 0.610000000000D+02
    0.410400000000D+06 0.400000000000D+01 0.000000000000D+00 0.000000000000D+00
23 16  9 15 20  0  0.0-0.190024729818D-03-0.136424205266D-11 0.000000000000D+00
    0.300000000000D+02 0.614687500000D+02 0.529379193625D-08-0.158698548297D+01
    0.309385359287D-05 0.111493571894D-01 0.472366809845D-05 0.515360914421D+04
    0.417600000000D+06 0.149011611938D-06-0.208108602035D+01-0.165775418282D-06
    0.945293729930D+00 0.278031250000D+03-0.253135074707D+01-0.848392481809D-08
    0.446804325479D-09 0.100000000000D+01 0.191400000000D+04 0.000000000000D+00
    0.200000000000D+01 0.000000000000D+00-0.200234353542D-07 0.300000000000D+02
    0.410400000000D+06 0.400000000000D+01 0.000000000000D+00 0.000000000000D+00
24 16  9 15 20  0  0.0-0.232029706240D-04-0.568434188608D-12 0.000000000000D+00
    0.106000000000D+03-0.767187500000D+02 0.495377777330D-08-0.212315386380D+01
   -0.387243926525D-05 0.465198920574D-02 0.652857124805D-05 0.515372391891D+04
    0.417600000000D+06-0.670552253723D-07-0.105540446067D+01-0.447034835815D-07
    0.947932766850D+00 0.247562500000D+03 0.394398416117D+00-0.833784730481D-08
   -0.520735976458D-09 0.100000000000D+01 0.191400000000D+04 0.000000000000D+00
    0.200000000000D+01 0.000000000000D+00 0.232830643654D-08 0.106000000000D+03
    0.410400000000D+06 0.400000000000D+01 0.000000000000D+00 0.000000000000D+00
25 16  9 15 20  0  0.0-0.246308743954D-03-0.693489710102D-11 0.000000000000D+00
    0.210000000000D+02 0.429687500000D+02 0.364408036200D-08 0.204297214311D+01
    0.224635004997D-05 0.558921659831D-02 0.128448009491D-04 0.515370816803D+04
    0.417600000000D+06-0.113621354103D-06 0.196329487168D-01-0.409781932831D-07
    0.978635286054D+00 0.139968750000D+03 0.786126781450D+00-0.765281877062D-08
    0.853606984729D-10 0.100000000000D+01 0.191400000000D+04 0.000000000000D+00
    0.200000000000D+01 0.000000000000D+00 0.558793544769D-08 0.210000000000D+02
    0.410400000000D+06 0.400000000000D+01 0.000000000000D+00 0.000000000000D+00
26 16  9 15 20  0  0.0-0.470070634037D-03-0.727595761418D-11 0.000000000000D+00
    0.570000000000D+02 0.489687500000D+02 0.407695553585D-08 0.156123001728D+01
    0.254623591900D-05 0.972629757598D-03 0.131502747536D-04 0.515358527374D+04
    0.417600000000D+06-0.502914190292D-07 0.871168155079D-02 0.204890966415D-07
    0.960539273219D+00 0.125812500000D+03-0.792246635909D-01-0.778746723641D-08
    0.575023952056D-10 0.100000000000D+01 0.191400000000D+04 0.000000000000D+00
    0.200000000000D+01 0.000000000000D+00 0.698491930962D-08 0.570000000000D+02
    0.410400000000D+06 0.400000000000D+01 0.000000000000D+00 0.000000000000D+00
